OBJECT_NAME,OBJECT_ID,EPOCH,MEAN_MOTION,ECCENTRICITY,INCLINATION,RA_OF_ASC_NODE,ARG_OF_PERICENTER,MEAN_ANOMALY,EPHEMERIS_TYPE,CLASSIFICATION_TYPE,NORAD_CAT_ID,ELEMENT_SET_NO,REV_AT_EPOCH,BSTAR,MEAN_MOTION_DOT,MEAN_MOTION_DDOT
CBERS 4A,2019-093E,2026-06-15T04:45:59.950656,14.81791230,.00019989,98.0129,233.6361,354.8536,5.2656,0,U,44883,999,35078,.97114071E-4,.713E-5,0
WEILAI 1R,2019-093F,2026-06-15T06:06:06.278112,15.00633190,.00179162,97.7860,256.1366,42.2716,317.9885,0,U,44884,999,35213,.4219092E-3,.5291E-4,0
FLORIPASAT-1,2019-093G,2026-06-15T07:06:05.161248,15.03857506,.00128799,97.7916,260.5129,77.9502,282.3166,0,U,44885,999,35236,.40399041E-3,.5508E-4,0
SHUNTIAN,2019-093H,2026-06-15T06:24:52.875360,14.95155405,.0013333,97.8022,254.4369,74.5407,285.7285,0,U,44886,999,35189,.33162965E-3,.3588E-4,0
ELEKTRO-L 3,2019-095A,2026-06-14T23:44:04.136064,1.00271475,.00009445,0.2504,81.5404,353.1367,260.5757,0,U,44903,999,2368,0,-.91E-6,0
GONETS-M 14,2019-096A,2026-06-15T06:39:12.348864,12.42869556,.00134187,82.5239,85.8248,151.9795,208.2009,0,U,44905,999,29344,-.20025168E-3,-.18E-6,0
GONETS-M 15,2019-096B,2026-06-15T07:21:32.664384,12.42871309,.00148065,82.5259,86.2677,175.5578,184.5636,0,U,44906,999,29341,.7956809E-4,.21E-6,0
GONETS-M 16,2019-096C,2026-06-15T06:03:25.500672,12.42891353,.00097465,82.5205,85.2547,219.2907,140.7466,0,U,44907,999,29339,-.27642242E-3,-.28E-6,0
RS-44 & BREEZE-KM R/B,2019-096E,2026-06-14T23:20:21.897888,12.79748835,.02180831,82.5218,341.1769,149.3296,212.0767,0,U,44909,999,30206,.1220792E-5,.13E-6,0
JILIN-1 KUANFU 01,2020-003A,2026-06-15T05:34:25.604256,15.10713673,.00084963,97.5031,240.2255,315.4190,44.6355,0,U,45016,999,35503,.16301209E-3,.2639E-4,0
XINGYUN-2 01,2020-028A,2026-06-15T06:55:48.223776,15.11802688,.00081291,97.4859,158.7268,199.2259,160.8666,0,U,45602,999,33455,.15268519E-3,.2544E-4,0
XINGYUN-2 02,2020-028B,2026-06-15T06:24:31.672800,15.11534122,.00090381,97.5065,172.2921,281.0059,79.0155,0,U,45603,999,33454,.1493966E-3,.2469E-4,0
HAIYANG-1D,2020-036A,2026-06-15T07:10:07.865760,14.34174127,.00032846,98.4555,108.0197,131.9114,228.2352,0,U,45721,999,31470,.18237075E-3,.468E-5,0
M2 PATHFINDER,2020-037E,2026-06-15T01:14:38.105952,15.04669716,.00123629,97.8149,357.2598,152.5507,207.6374,0,U,45727,999,32517,.1386201E-3,.1888E-4,0
GAOFEN DUOMO (GFDM),2020-042A,2026-06-15T07:26:57.612192,14.76876701,.00124685,97.7752,226.2645,79.8980,280.3637,0,U,45856,999,32073,.46164597E-4,.276E-5,0
ZIYUAN 3-03 (ZY 3-03),2020-051A,2026-06-15T06:38:34.376928,15.21519374,.00033587,97.2838,234.0649,329.7074,30.3967,0,U,45939,999,32705,.18933138E-3,.4195E-4,0
NEMO-HD,2020-061F,2026-06-15T06:01:25.749408,15.44559184,.00023876,97.1923,228.2232,83.1968,276.9553,0,U,46277,999,32168,.19932075E-3,.9172E-4,0
NAPA-1,2020-061BA,2026-06-15T07:29:01.656672,15.67767919,.00013748,97.2471,240.4295,170.5782,189.5506,0,U,46320,999,32144,.54640234E-3,.60053E-3,0
JILIN-1 GAOFEN 3E,2020-065D,2026-06-15T07:14:49.889184,15.63428309,.00127964,97.2247,218.8675,162.7578,197.4118,0,U,46457,999,31946,.57341399E-3,.53201E-3,0
JILIN-1 GAOFEN 3F,2020-065E,2026-06-15T04:41:25.387872,15.60726087,.00143406,97.2203,216.1034,152.4420,207.7601,0,U,46458,999,31939,.551949E-3,.46127E-3,0
JILIN-1 GAOFEN 3G,2020-065F,2026-06-15T07:13:01.223040,15.70920016,.00087025,97.2270,222.9831,71.2748,288.9458,0,U,46459,999,31964,.64012151E-3,.80455E-3,0
JILIN-1 GAOFEN 3H,2020-065G,2026-06-15T06:26:12.397056,15.67538680,.00036944,97.2217,219.2890,1.7999,358.3275,0,U,46460,999,31958,.56378392E-3,.61422E-3,0
HAIYANG-2C,2020-066A,2026-06-15T06:52:00.946848,13.83375417,.00089908,65.9968,220.0173,238.1917,121.8276,0,U,46469,999,28923,.14824912E-3,.82E-6,0
HJ-2A,2020-067A,2026-06-15T06:25:28.394400,14.76515619,.00023544,97.8834,244.6851,277.6223,82.4720,0,U,46478,999,30797,.13934872E-3,.921E-5,0
HJ-2B,2020-067B,2026-06-15T07:18:40.119264,14.76555027,.00012082,97.8897,245.7413,96.6492,263.4855,0,U,46479,999,30798,.52686915E-4,.318E-5,0
GONETS-M 17,2020-068A,2026-06-15T06:39:33.928992,12.42873413,.00231595,82.4984,348.6912,41.4880,318.7952,0,U,46486,999,25892,.51161954E-3,.81E-6,0
GONETS-M 18,2020-068B,2026-06-15T05:47:13.873056,12.42873791,.00204141,82.4938,347.8325,38.3216,321.9310,0,U,46487,999,25890,.78427565E-3,.119E-5,0
