CBERS 4A                
1 44883U 19093E   26166.19861054  .00000713  00000+0  97114-4 0  9990
2 44883  98.0129 233.6361 0001998 354.8536   5.2656 14.81791230350786
WEILAI 1R               
1 44884U 19093F   26166.25423933  .00005291  00000+0  42191-3 0  9998
2 44884  97.7860 256.1366 0017916  42.2716 317.9885 15.00633190352135
FLORIPASAT-1            
1 44885U 19093G   26166.29589307  .00005508  00000+0  40399-3 0  9990
2 44885  97.7916 260.5129 0012879  77.9502 282.3166 15.03857506352369
SHUNTIAN                
1 44886U 19093H   26166.26727865  .00003588  00000+0  33163-3 0  9998
2 44886  97.8022 254.4369 0013333  74.5407 285.7285 14.95155405351895
ELEKTRO-L 3             
1 44903U 19095A   26165.98893676 -.00000091  00000+0  00000+0 0  9999
2 44903   0.2504  81.5404 0000944 353.1367 260.5757  1.00271475 23688
GONETS-M 14             
1 44905U 19096A   26166.27722626 -.00000018  00000+0 -20025-3 0  9994
2 44905  82.5239  85.8248 0013418 151.9795 208.2009 12.42869556293443
GONETS-M 15             
1 44906U 19096B   26166.30662806  .00000021  00000+0  79568-4 0  9991
2 44906  82.5259  86.2677 0014806 175.5578 184.5636 12.42871309293418
GONETS-M 16             
1 44907U 19096C   26166.25237848 -.00000028  00000+0 -27642-3 0  9994
2 44907  82.5205  85.2547 0009746 219.2907 140.7466 12.42891353293397
RS-44 & BREEZE-KM R/B   
1 44909U 19096E   26165.97247567  .00000013  00000+0  12208-5 0  9999
2 44909  82.5218 341.1769 0218083 149.3296 212.0767 12.79748835302061
JILIN-1 KUANFU 01       
1 45016U 20003A   26166.23224079  .00002639  00000+0  16301-3 0  9994
2 45016  97.5031 240.2255 0008496 315.4190  44.6355 15.10713673355030
XINGYUN-2 01            
1 45602U 20028A   26166.28875259  .00002544  00000+0  15269-3 0  9996
2 45602  97.4859 158.7268 0008129 199.2259 160.8666 15.11802688334558
XINGYUN-2 02            
1 45603U 20028B   26166.26703325  .00002469  00000+0  14940-3 0  9990
2 45603  97.5065 172.2921 0009038 281.0059  79.0155 15.11534122334542
HAIYANG-1D              
1 45721U 20036A   26166.29870215  .00000468  00000+0  18237-3 0  9996
2 45721  98.4555 108.0197 0003284 131.9114 228.2352 14.34174127314703
M2 PATHFINDER           
1 45727U 20037E   26166.05182993  .00001888  00000+0  13862-3 0  9992
2 45727  97.8149 357.2598 0012362 152.5507 207.6374 15.04669716325175
GAOFEN DUOMO (GFDM)     
1 45856U 20042A   26166.31038903  .00000276  00000+0  46165-4 0  9994
2 45856  97.7752 226.2645 0012468  79.8980 280.3637 14.76876701320737
ZIYUAN 3-03 (ZY 3-03)   
1 45939U 20051A   26166.27678677  .00004195  00000+0  18933-3 0  9994
2 45939  97.2838 234.0649 0003358 329.7074  30.3967 15.21519374327051
NEMO-HD                 
1 46277U 20061F   26166.25099247  .00009172  00000+0  19932-3 0  9999
2 46277  97.1923 228.2232 0002387  83.1968 276.9553 15.44559184321688
NAPA-1                  
1 46320U 20061BA  26166.31182473  .00060053  00000+0  54640-3 0  9999
2 46320  97.2471 240.4295 0001374 170.5782 189.5506 15.67767919321444
JILIN-1 GAOFEN 3E       
1 46457U 20065D   26166.30196631  .00053201  00000+0  57341-3 0  9992
2 46457  97.2247 218.8675 0012796 162.7578 197.4118 15.63428309319462
JILIN-1 GAOFEN 3F       
1 46458U 20065E   26166.19543273  .00046127  00000+0  55195-3 0  9992
2 46458  97.2203 216.1034 0014340 152.4420 207.7601 15.60726087319399
JILIN-1 GAOFEN 3G       
1 46459U 20065F   26166.30070860  .00080455  00000+0  64012-3 0  9993
2 46459  97.2270 222.9831 0008702  71.2748 288.9458 15.70920016319648
JILIN-1 GAOFEN 3H       
1 46460U 20065G   26166.26819904  .00061422  00000+0  56378-3 0  9999
2 46460  97.2217 219.2890 0003694   1.7999 358.3275 15.67538680319586
HAIYANG-2C              
1 46469U 20066A   26166.28612207  .00000082  00000+0  14825-3 0  9994
2 46469  65.9968 220.0173 0008990 238.1917 121.8276 13.83375417289239
HJ-2A                   
1 46478U 20067A   26166.26768975  .00000921  00000+0  13935-3 0  9990
2 46478  97.8834 244.6851 0002354 277.6223  82.4720 14.76515619307977
HJ-2B                   
1 46479U 20067B   26166.30463101  .00000318  00000+0  52687-4 0  9997
2 46479  97.8897 245.7413 0001208  96.6492 263.4855 14.76555027307985
GONETS-M 17             
1 46486U 20068A   26166.27747603  .00000081  00000+0  51162-3 0  9997
2 46486  82.4984 348.6912 0023159  41.4880 318.7952 12.42873413258929
GONETS-M 18             
1 46487U 20068B   26166.24113279  .00000119  00000+0  78428-3 0  9997
2 46487  82.4938 347.8325 0020414  38.3216 321.9310 12.42873791258908
